{
  "code_version_info": {
    "commit": "ce91a2d6a2bcbf6480fea36e1ebeb3be24bf3e15",
    "time": "2023-11-27 21:44:42.151131"
  },
  "evaluator_config": {
    "cadence": null,
    "max_delay_sec": null,
    "max_early_sec": 7200,
    "retrain_freq": null,
    "train_window": 0.0
  },
  "model_config": {
    "batch_size": 512,
    "calibrator": {
      "abs_score": true,
      "anchors": [
        [
          0.1335226446390152,
          0.0
        ],
        [
          0.4989402393733711,
          0.5
        ],
        [
          0.8014959731379194,
          1.0
        ],
        [
          1.1988050774345802,
          1.5
        ],
        [
          3.143832284565064,
          2.0
        ],
        [
          29.41632080078125,
          5.0
        ]
      ],
      "max_score": 1000,
      "name": "AnomScoreCalibrator"
    },
    "dim": 6,
    "enable_calibrator": true,
    "enable_threshold": true,
    "hidden_size": 5,
    "layer_sizes": [
      25,
      10,
      5
    ],
    "lr": 0.001,
    "normalize": {
      "bias": {
        "ARG_OF_PERICENTER": 0.6402978723404255,
        "ECCENTRICITY": -1.3319148936170205e-06,
        "INCLINATION": 1.4184397163087867e-05,
        "MEAN_ANOMALY": -0.6382390070921985,
        "MEAN_MOTION": -9.239503546115074e-06,
        "RA_OF_ASC_NODE": -0.7126886524822693
      },
      "name": "MeanVarNormalize",
      "normalize_bias": true,
      "normalize_scale": true,
      "scale": {
        "ARG_OF_PERICENTER": 16.015017975980808,
        "ECCENTRICITY": 6.372592280036999e-05,
        "INCLINATION": 0.0025320521646629976,
        "MEAN_ANOMALY": 14.304175438238692,
        "MEAN_MOTION": 0.0001573022739703742,
        "RA_OF_ASC_NODE": 0.5238201012301786
      }
    },
    "num_epochs": 50,
    "sequence_len": 1,
    "threshold": {
      "abs_score": true,
      "alm_suppress_minutes": 120,
      "alm_threshold": 1.5505808007515434,
      "alm_window_minutes": 60,
      "min_alm_in_window": 2,
      "name": "AggregateAlarms"
    },
    "transform": {
      "name": "Identity"
    }
  }
}